[{"OBJECT_NAME":"ORBCOMM FM20","OBJECT_ID":"1998-046D","EPOCH":"2026-03-05T21:54:43.860096","MEAN_MOTION":14.37886139,"ECCENTRICITY":0.00014576,"INCLINATION":44.9954,"RA_OF_ASC_NODE":21.1795,"ARG_OF_PERICENTER":290.396,"MEAN_ANOMALY":69.6731,"EPHEMERIS_TYPE":0,"CLASSIFICATION_TYPE":"U","NORAD_CAT_ID":25416,"ELEMENT_SET_NO":999,"REV_AT_EPOCH":44192,"BSTAR":0.00044568243,"MEAN_MOTION_DOT":1.215e-5,"MEAN_MOTION_DDOT":0},{"OBJECT_NAME":"ORBCOMM FM16","OBJECT_ID":"1998-046E","EPOCH":"2026-03-05T22:13:17.666688","MEAN_MOTION":14.39821381,"ECCENTRICITY":0.00030309,"INCLINATION":44.9949,"RA_OF_ASC_NODE":9.0271,"ARG_OF_PERICENTER":198.584,"MEAN_ANOMALY":161.4899,"EPHEMERIS_TYPE":0,"CLASSIFICATION_TYPE":"U","NORAD_CAT_ID":25417,"ELEMENT_SET_NO":999,"REV_AT_EPOCH":44196,"BSTAR":0.00054618583,"MEAN_MOTION_DOT":1.587e-5,"MEAN_MOTION_DDOT":0},{"OBJECT_NAME":"ORBCOMM FM15","OBJECT_ID":"1998-046F","EPOCH":"2026-03-05T19:55:18.330528","MEAN_MOTION":14.3944203,"ECCENTRICITY":0.00027281,"INCLINATION":44.9983,"RA_OF_ASC_NODE":15.4349,"ARG_OF_PERICENTER":201.4877,"MEAN_ANOMALY":158.5857,"EPHEMERIS_TYPE":0,"CLASSIFICATION_TYPE":"U","NORAD_CAT_ID":25418,"ELEMENT_SET_NO":999,"REV_AT_EPOCH":44193,"BSTAR":0.00022889098,"MEAN_MOTION_DOT":5.77e-6,"MEAN_MOTION_DDOT":0},{"OBJECT_NAME":"ORBCOMM FM14","OBJECT_ID":"1998-046G","EPOCH":"2026-03-05T21:56:33.119808","MEAN_MOTION":14.39881679,"ECCENTRICITY":0.00015927,"INCLINATION":44.9968,"RA_OF_ASC_NODE":12.4446,"ARG_OF_PERICENTER":210.836,"MEAN_ANOMALY":149.2395,"EPHEMERIS_TYPE":0,"CLASSIFICATION_TYPE":"U","NORAD_CAT_ID":25419,"ELEMENT_SET_NO":999,"REV_AT_EPOCH":44192,"BSTAR":0.00053820556,"MEAN_MOTION_DOT":1.564e-5,"MEAN_MOTION_DDOT":0},{"OBJECT_NAME":"ORBCOMM FM13","OBJECT_ID":"1998-046H","EPOCH":"2026-03-05T22:11:13.145280","MEAN_MOTION":14.3843594,"ECCENTRICITY":0.00032538,"INCLINATION":44.9986,"RA_OF_ASC_NODE":23.1006,"ARG_OF_PERICENTER":167.9316,"MEAN_ANOMALY":192.1611,"EPHEMERIS_TYPE":0,"CLASSIFICATION_TYPE":"U","NORAD_CAT_ID":25420,"ELEMENT_SET_NO":999,"REV_AT_EPOCH":44091,"BSTAR":0.00048184858,"MEAN_MOTION_DOT":1.342e-5,"MEAN_MOTION_DDOT":0},{"OBJECT_NAME":"ORBCOMM FM21","OBJECT_ID":"1998-053A","EPOCH":"2026-03-05T10:38:38.971968","MEAN_MOTION":14.3800518,"ECCENTRICITY":0.0001101,"INCLINATION":45.0074,"RA_OF_ASC_NODE":111.668,"ARG_OF_PERICENTER":225.4412,"MEAN_ANOMALY":134.6346,"EPHEMERIS_TYPE":0,"CLASSIFICATION_TYPE":"U","NORAD_CAT_ID":25475,"ELEMENT_SET_NO":999,"REV_AT_EPOCH":43484,"BSTAR":0.00046755,"MEAN_MOTION_DOT":1.285e-5,"MEAN_MOTION_DDOT":0},{"OBJECT_NAME":"ORBCOMM FM22","OBJECT_ID":"1998-053B","EPOCH":"2026-03-05T06:36:21.236256","MEAN_MOTION":14.39228246,"ECCENTRICITY":0.0001097,"INCLINATION":45.0065,"RA_OF_ASC_NODE":105.0324,"ARG_OF_PERICENTER":135.8222,"MEAN_ANOMALY":224.2715,"EPHEMERIS_TYPE":0,"CLASSIFICATION_TYPE":"U","NORAD_CAT_ID":25476,"ELEMENT_SET_NO":999,"REV_AT_EPOCH":43487,"BSTAR":0.00052541,"MEAN_MOTION_DOT":1.502e-5,"MEAN_MOTION_DDOT":0},{"OBJECT_NAME":"ORBCOMM FM23","OBJECT_ID":"1998-053C","EPOCH":"2026-03-05T11:22:07.217760","MEAN_MOTION":14.38265632,"ECCENTRICITY":6.69e-5,"INCLINATION":45.0073,"RA_OF_ASC_NODE":113.2053,"ARG_OF_PERICENTER":163.3908,"MEAN_ANOMALY":196.6962,"EPHEMERIS_TYPE":0,"CLASSIFICATION_TYPE":"U","NORAD_CAT_ID":25477,"ELEMENT_SET_NO":999,"REV_AT_EPOCH":43500,"BSTAR":0.00049774,"MEAN_MOTION_DOT":1.385e-5,"MEAN_MOTION_DDOT":0},{"OBJECT_NAME":"ORBCOMM FM24","OBJECT_ID":"1998-053D","EPOCH":"2026-03-05T22:14:58.920576","MEAN_MOTION":14.38912529,"ECCENTRICITY":9.234e-5,"INCLINATION":45.0071,"RA_OF_ASC_NODE":107.3131,"ARG_OF_PERICENTER":192.8693,"MEAN_ANOMALY":167.2133,"EPHEMERIS_TYPE":0,"CLASSIFICATION_TYPE":"U","NORAD_CAT_ID":25478,"ELEMENT_SET_NO":999,"REV_AT_EPOCH":43513,"BSTAR":0.00043955462,"MEAN_MOTION_DOT":1.224e-5,"MEAN_MOTION_DDOT":0},{"OBJECT_NAME":"ORBCOMM FM25","OBJECT_ID":"1998-053E","EPOCH":"2026-03-05T10:01:52.912992","MEAN_MOTION":14.38874373,"ECCENTRICITY":0.0002895,"INCLINATION":45.0062,"RA_OF_ASC_NODE":108.0431,"ARG_OF_PERICENTER":144.3469,"MEAN_ANOMALY":215.7574,"EPHEMERIS_TYPE":0,"CLASSIFICATION_TYPE":"U","NORAD_CAT_ID":25479,"ELEMENT_SET_NO":999,"REV_AT_EPOCH":43535,"BSTAR":0.00049457,"MEAN_MOTION_DOT":1.394e-5,"MEAN_MOTION_DDOT":0},{"OBJECT_NAME":"ORBCOMM FM26","OBJECT_ID":"1998-053F","EPOCH":"2026-03-05T11:19:48.004032","MEAN_MOTION":14.37810836,"ECCENTRICITY":0.0005141,"INCLINATION":45.0062,"RA_OF_ASC_NODE":106.2433,"ARG_OF_PERICENTER":153.4309,"MEAN_ANOMALY":206.6803,"EPHEMERIS_TYPE":0,"CLASSIFICATION_TYPE":"U","NORAD_CAT_ID":25480,"ELEMENT_SET_NO":999,"REV_AT_EPOCH":43524,"BSTAR":0.00044517,"MEAN_MOTION_DOT":1.212e-5,"MEAN_MOTION_DDOT":0},{"OBJECT_NAME":"ORBCOMM FM27","OBJECT_ID":"1998-053G","EPOCH":"2026-03-05T11:15:05.086368","MEAN_MOTION":14.38918898,"ECCENTRICITY":0.0001791,"INCLINATION":45.0048,"RA_OF_ASC_NODE":107.9,"ARG_OF_PERICENTER":246.8038,"MEAN_ANOMALY":113.2622,"EPHEMERIS_TYPE":0,"CLASSIFICATION_TYPE":"U","NORAD_CAT_ID":25481,"ELEMENT_SET_NO":999,"REV_AT_EPOCH":43529,"BSTAR":0.00054256,"MEAN_MOTION_DOT":1.545e-5,"MEAN_MOTION_DDOT":0},{"OBJECT_NAME":"ORBCOMM FM28","OBJECT_ID":"1998-053H","EPOCH":"2026-03-05T08:10:58.820448","MEAN_MOTION":14.39014848,"ECCENTRICITY":0.0003674,"INCLINATION":45.006,"RA_OF_ASC_NODE":45.7125,"ARG_OF_PERICENTER":200.0148,"MEAN_ANOMALY":160.0557,"EPHEMERIS_TYPE":0,"CLASSIFICATION_TYPE":"U","NORAD_CAT_ID":25482,"ELEMENT_SET_NO":999,"REV_AT_EPOCH":43596,"BSTAR":0.0004899,"MEAN_MOTION_DOT":1.384e-5,"MEAN_MOTION_DDOT":0},{"OBJECT_NAME":"ORBCOMM FM30","OBJECT_ID":"1999-065A","EPOCH":"2026-03-05T20:22:52.890528","MEAN_MOTION":14.37971375,"ECCENTRICITY":0.00058279,"INCLINATION":45.0316,"RA_OF_ASC_NODE":290.5536,"ARG_OF_PERICENTER":243.5805,"MEAN_ANOMALY":116.4446,"EPHEMERIS_TYPE":0,"CLASSIFICATION_TYPE":"U","NORAD_CAT_ID":25980,"ELEMENT_SET_NO":999,"REV_AT_EPOCH":37210,"BSTAR":0.00035422314,"MEAN_MOTION_DOT":9.38e-6,"MEAN_MOTION_DDOT":0},{"OBJECT_NAME":"ORBCOMM FM31","OBJECT_ID":"1999-065B","EPOCH":"2026-03-05T18:22:35.703264","MEAN_MOTION":14.37895042,"ECCENTRICITY":0.00035052,"INCLINATION":45.0225,"RA_OF_ASC_NODE":284.3911,"ARG_OF_PERICENTER":273.1224,"MEAN_ANOMALY":86.9223,"EPHEMERIS_TYPE":0,"CLASSIFICATION_TYPE":"U","NORAD_CAT_ID":25981,"ELEMENT_SET_NO":999,"REV_AT_EPOCH":37164,"BSTAR":0.00040422328,"MEAN_MOTION_DOT":1.089e-5,"MEAN_MOTION_DDOT":0},{"OBJECT_NAME":"ORBCOMM FM32","OBJECT_ID":"1999-065C","EPOCH":"2026-03-05T21:57:19.960704","MEAN_MOTION":14.36956866,"ECCENTRICITY":0.00057792,"INCLINATION":45.0161,"RA_OF_ASC_NODE":302.0065,"ARG_OF_PERICENTER":268.7469,"MEAN_ANOMALY":91.2717,"EPHEMERIS_TYPE":0,"CLASSIFICATION_TYPE":"U","NORAD_CAT_ID":25982,"ELEMENT_SET_NO":999,"REV_AT_EPOCH":37223,"BSTAR":0.00037972425,"MEAN_MOTION_DOT":9.93e-6,"MEAN_MOTION_DDOT":0}]
