ORBCOMM FM20            
1 25416U 98046D   26064.91300764  .00001215  00000+0  44568-3 0  9991
2 25416  44.9954  21.1795 0001457 290.3960  69.6731 14.37886139441928
ORBCOMM FM16            
1 25417U 98046E   26064.92589892  .00001587  00000+0  54619-3 0  9994
2 25417  44.9949   9.0271 0003030 198.5840 161.4899 14.39821381441962
ORBCOMM FM15            
1 25418U 98046F   26064.83007327  .00000577  00000+0  22889-3 0  9995
2 25418  44.9983  15.4349 0002728 201.4877 158.5857 14.39442030441933
ORBCOMM FM14            
1 25419U 98046G   26064.91427222  .00001564  00000+0  53821-3 0  9992
2 25419  44.9968  12.4446 0001592 210.8360 149.2395 14.39881679441920
ORBCOMM FM13            
1 25420U 98046H   26064.92445770  .00001342  00000+0  48185-3 0  9994
2 25420  44.9986  23.1006 0003253 167.9316 192.1611 14.38435940440913
ORBCOMM FM21            
1 25475U 98053A   26064.44350662  .00001285  00000+0  46755-3 0  9991
2 25475  45.0074 111.6680 0001101 225.4412 134.6346 14.38005180434841
ORBCOMM FM22            
1 25476U 98053B   26064.27524579  .00001502  00000+0  52541-3 0  9995
2 25476  45.0065 105.0324 0001097 135.8222 224.2715 14.39228246434871
ORBCOMM FM23            
1 25477U 98053C   26064.47369465  .00001385  00000+0  49774-3 0  9992
2 25477  45.0073 113.2053 0000669 163.3908 196.6962 14.38265632435003
ORBCOMM FM24            
1 25478U 98053D   26064.92707084  .00001224  00000+0  43955-3 0  9993
2 25478  45.0071 107.3131 0000923 192.8693 167.2133 14.38912529435136
ORBCOMM FM25            
1 25479U 98053E   26064.41797353  .00001394  00000+0  49457-3 0  9997
2 25479  45.0062 108.0431 0002895 144.3469 215.7574 14.38874373435357
ORBCOMM FM26            
1 25480U 98053F   26064.47208338  .00001212  00000+0  44517-3 0  9996
2 25480  45.0062 106.2433 0005141 153.4309 206.6803 14.37810836435247
ORBCOMM FM27            
1 25481U 98053G   26064.46880887  .00001545  00000+0  54256-3 0  9991
2 25481  45.0048 107.9000 0001791 246.8038 113.2622 14.38918898435298
ORBCOMM FM28            
1 25482U 98053H   26064.34095857  .00001384  00000+0  48990-3 0  9993
2 25482  45.0060  45.7125 0003674 200.0148 160.0557 14.39014848435960
ORBCOMM FM30            
1 25980U 99065A   26064.84922327  .00000938  00000+0  35422-3 0  9996
2 25980  45.0316 290.5536 0005827 243.5805 116.4446 14.37971375372100
ORBCOMM FM31            
1 25981U 99065B   26064.76569101  .00001089  00000+0  40422-3 0  9999
2 25981  45.0225 284.3911 0003505 273.1224  86.9223 14.37895042371641
ORBCOMM FM32            
1 25982U 99065C   26064.91481436  .00000993  00000+0  37972-3 0  9990
2 25982  45.0161 302.0065 0005779 268.7469  91.2717 14.36956866372239
